GLOBALSTAR M068 [-]     
1 32266U 07048D   23267.51963299 -.00000090  00000+0  74696-4 0  9997
2 32266  51.9887  67.6909 0001133 138.2059 245.9204 12.62766543738042
GLOBALSTAR M079 [+]     
1 37188U 10054A   23267.46075919 -.00000075  00000+0  16032-3 0  9995
2 37188  52.0022 262.8648 0000404  52.1906  71.4342 12.62267993597354
GLOBALSTAR M074 [+]     
1 37189U 10054B   23267.41311510 -.00000081  00000+0  12431-3 0  9997
2 37189  52.0001 262.4301 0000399  81.9063  65.3017 12.62270060597340
GLOBALSTAR M076 [+]     
1 37190U 10054C   23267.18714410 -.00000104  00000+0  36367-6 0  9992
2 37190  52.0023 263.2310 0000934  59.9865  20.3958 12.62261329597326
GLOBALSTAR M077 [+]     
1 37191U 10054D   23267.35138167 -.00000067  00000+0  20316-3 0  9993
2 37191  52.0062 219.4056 0000490  74.2647  91.3389 12.62264038598096
GLOBALSTAR M075 [+]     
1 37192U 10054E   23266.90390796 -.00000076  00000+0  15537-3 0  9991
2 37192  51.9952 306.7046 0000364  67.7677 104.2083 12.62261552596521
GLOBALSTAR M073 [+]     
1 37193U 10054F   23267.20615836 -.00000093  00000+0  62047-4 0  9999
2 37193  52.0049 219.1177 0000495  62.1232  44.1402 12.62267644598071
GLOBALSTAR M083 [+]     
1 37739U 11033A   23267.14909417 -.00000095  00000+0  49045-4 0  9992
2 37739  51.9850 168.8858 0000392  55.0941  92.9455 12.62269310567397
GLOBALSTAR M088 [+]     
1 37740U 11033B   23266.77649272 -.00000096  00000+0  43207-4 0  9997
2 37740  51.9730  76.0427 0000557  71.6545 301.8521 12.62265803562827
GLOBALSTAR M091 [+]     
1 37741U 11033C   23267.11449365 -.00000099  00000+0  26184-4 0  9996
2 37741  52.0017  37.4379 0000447  77.6189 331.9059 12.62266405563621
GLOBALSTAR M085 [+]     
1 37742U 11033D   23266.55885800 -.00000088  00000+0  87542-4 0  9995
2 37742  51.9897 350.7303 0000326  93.0596  11.2692 12.62262966563803
GLOBALSTAR M081 [+]     
1 37743U 11033E   23266.58611869 -.00000088  00000+0  87994-4 0  9992
2 37743  51.9989 353.0441 0000460  62.9555  45.1039 12.62264434564336
GLOBALSTAR M089 [+]     
1 37744U 11033F   23267.16410355 -.00000069  00000+0  19560-3 0  9997
2 37744  51.9933 305.6332 0000652  89.2083 306.0752 12.62267177565125
GLOBALSTAR M084 [+]     
1 38040U 11080A   23267.12144022 -.00000094  00000+0  53681-4 0  9991
2 38040  52.0004 172.7146 0000866  74.5629  66.0972 12.62266114543125
GLOBALSTAR M080 [+]     
1 38041U 11080B   23267.17646407 -.00000092  00000+0  66851-4 0  9992
2 38041  52.0054 173.9308 0001033  65.7883  85.4314 12.62264620543119
GLOBALSTAR M082 [+]     
1 38042U 11080C   23267.10699904 -.00000094  00000+0  53203-4 0  9995
2 38042  52.0062 129.5214 0000141  95.2360  40.5818 12.62271048543842
GLOBALSTAR M092 [+]     
1 38043U 11080D   23267.32250250 -.00000093  00000+0  61581-4 0  9994
2 38043  52.0074 219.2068 0000734  89.3726  66.5139 12.62272124542364
GLOBALSTAR M090 [+]     
1 38044U 11080E   23266.80444067 -.00000098  00000+0  34463-4 0  9992
2 38044  51.9869 125.0659 0000509  61.0491  19.3403 12.62277783543795
GLOBALSTAR M086 [+]     
1 38045U 11080F   23267.08631604 -.00000095  00000+0  48864-4 0  9996
2 38045  51.9883 124.7081 0001377  28.6900 133.9078 12.62262664543833
GLOBALSTAR M097 [+]     
1 39072U 13005A   23266.52303227 -.00000110  00000+0 -32208-4 0  9995
2 39072  52.0066  40.3271 0000442  77.4222 282.6694 12.62270679490993
GLOBALSTAR M093 [+]     
1 39073U 13005B   23266.73400288 -.00000098  00000+0  31396-4 0  9995
2 39073  51.9831  33.9998 0000391  48.3841 311.7059 12.62266721491019
GLOBALSTAR M094 [+]     
1 39074U 13005C   23267.05080016 -.00000074  00000+0  16787-3 0  9995
2 39074  51.9963 306.7901 0000317  70.0062 290.0839 12.62267776492563
GLOBALSTAR M096 [+]     
1 39075U 13005D   23266.43037253 -.00000122  00000+0 -10015-3 0  9995
2 39075  52.0108 356.6958 0000336  74.1002 285.9902 12.62263861491387
GLOBALSTAR M078 [+]     
1 39076U 13005E   23267.43312115 -.00000100  00000+0  21121-4 0  9996
2 39076  51.9868  79.0082 0000733 174.3317 185.7558 12.62261458490345
GLOBALSTAR M095 [+]     
1 39077U 13005F   23267.45998164 -.00000102  00000+0  79057-5 0  9997
2 39077  51.9794  76.4400 0000174 141.7520 218.3359 12.62268988490350
GLOBALSTAR M087 [+]     
1 52888U 22064A   23266.44954815 -.00000101  00000+0  52864-4 0  9995
2 52888  51.9762  61.9524 0010024  48.4821 311.6939 13.37553030 61698
